{"type": "FeatureCollection", "features": [ {"type": "Feature", "properties": {"norad_id": 65304, "name": "DRAGON CRS-33", "group": "stations", "lat": 45.943612468783186, "lon": -176.00115000941892, "alt_km": 413.7460371628704, "timestamp": "2025-12-15T10:55:19.884669+00:00", "meta": {"OBJECT_NAME": "DRAGON CRS-33", "OBJECT_ID": "2025-186A", "EPOCH": "2025-12-14T20:42:23.988960", "MEAN_MOTION": 15.4959536, "ECCENTRICITY": 0.00032074, "INCLINATION": 51.6306, "RA_OF_ASC_NODE": 131.9662, "ARG_OF_PERICENTER": 249.8734, "MEAN_ANOMALY": 110.1909, "EPHEMERIS_TYPE": 0, "CLASSIFICATION_TYPE": "U", "NORAD_CAT_ID": 65304, "ELEMENT_SET_NO": 999, "REV_AT_EPOCH": 11, "BSTAR": 0.00013765617, "MEAN_MOTION_DOT": 7.299e-05, "MEAN_MOTION_DDOT": 0}, "tle": {"line1": "1 65304U 25186A   25348.86277765  .00007299  00000+0  13766-3 0  9992", "line2": "2 65304  51.6306 131.9662 0003207 249.8734 110.1909 15.49595360   118"}}, "geometry": {"type": "Point", "coordinates": [-176.00115000941892, 45.943612468783186]}}, {"type": "Feature", "properties": {"norad_id": 65586, "name": "PROGRESS-MS 32", "group": "stations", "lat": 45.943612788829746, "lon": -176.00114909652018, "alt_km": 413.74603711836335, "timestamp": "2025-12-15T10:55:19.884680+00:00", "meta": {"OBJECT_NAME": "PROGRESS-MS 32", "OBJECT_ID": "2025-204A", "EPOCH": "2025-12-14T20:42:23.988960", "MEAN_MOTION": 15.4959536, "ECCENTRICITY": 0.00032074, "INCLINATION": 51.6306, "RA_OF_ASC_NODE": 131.9662, "ARG_OF_PERICENTER": 249.8734, "MEAN_ANOMALY": 110.1909, "EPHEMERIS_TYPE": 0, "CLASSIFICATION_TYPE": "U", "NORAD_CAT_ID": 65586, "ELEMENT_SET_NO": 999, "REV_AT_EPOCH": 27, "BSTAR": 0.00013765617, "MEAN_MOTION_DOT": 7.299e-05, "MEAN_MOTION_DDOT": 0}, "tle": {"line1": "1 65586U 25204A   25348.86277765  .00007299  00000+0  13766-3 0  9995", "line2": "2 65586  51.6306 131.9662 0003207 249.8734 110.1909 15.49595360   277"}}, "geometry": {"type": "Point", "coordinates": [-176.00114909652018, 45.943612788829746]}}, {"type": "Feature", "properties": {"norad_id": 65616, "name": "CYGNUS NG-23", "group": "stations", "lat": 45.94361313797108, "lon": -176.00114810063153, "alt_km": 413.7460370698145, "timestamp": "2025-12-15T10:55:19.884692+00:00", "meta": {"OBJECT_NAME": "CYGNUS NG-23", "OBJECT_ID": "2025-208A", "EPOCH": "2025-12-14T20:42:23.988960", "MEAN_MOTION": 15.4959536, "ECCENTRICITY": 0.00032074, "INCLINATION": 51.6306, "RA_OF_ASC_NODE": 131.9662, "ARG_OF_PERICENTER": 249.8734, "MEAN_ANOMALY": 110.1909, "EPHEMERIS_TYPE": 0, "CLASSIFICATION_TYPE": "U", "NORAD_CAT_ID": 65616, "ELEMENT_SET_NO": 999, "REV_AT_EPOCH": 22, "BSTAR": 0.00013765617, "MEAN_MOTION_DOT": 7.299e-05, "MEAN_MOTION_DDOT": 0}, "tle": {"line1": "1 65616U 25208A   25348.86277765  .00007299  00000+0  13766-3 0  9993", "line2": "2 65616  51.6306 131.9662 0003207 249.8734 110.1909 15.49595360   226"}}, "geometry": {"type": "Point", "coordinates": [-176.00114810063153, 45.94361313797108]}}, {"type": "Feature", "properties": {"norad_id": 65729, "name": "DRAGONFLY", "group": "stations", "lat": -51.5737413922767, "lon": 29.175669755513955, "alt_km": 351.0850963838666, "timestamp": "2025-12-15T10:55:19.884702+00:00", "meta": {"OBJECT_NAME": "DRAGONFLY", "OBJECT_ID": "1998-067XH", "EPOCH": "2025-12-14T18:32:10.159584", "MEAN_MOTION": 15.72674024, "ECCENTRICITY": 0.00069619, "INCLINATION": 51.6244, "RA_OF_ASC_NODE": 125.3489, "ARG_OF_PERICENTER": 292.1448, "MEAN_ANOMALY": 67.8811, "EPHEMERIS_TYPE": 0, "CLASSIFICATION_TYPE": "U", "NORAD_CAT_ID": 65729, "ELEMENT_SET_NO": 999, "REV_AT_EPOCH": 1348, "BSTAR": 0.0010954429, "MEAN_MOTION_DOT": 0.00152909, "MEAN_MOTION_DDOT": 0}, "tle": {"line1": "1 65729U 98067XH  25348.77233981  .00152909  00000+0  10954-2 0  9997", "line2": "2 65729  51.6244 125.3489 0006961 292.1448  67.8811 15.72674024 13482"}}, "geometry": {"type": "Point", "coordinates": [29.175669755513955, -51.5737413922767]}}, {"type": "Feature", "properties": {"norad_id": 65731, "name": "1998-067XK", "group": "stations", "lat": -36.92992726324399, "lon": -19.998508778962588, "alt_km": 370.6056258583394, "timestamp": "2025-12-15T10:55:19.884715+00:00", "meta": {"OBJECT_NAME": "1998-067XK", "OBJECT_ID": "1998-067XK", "EPOCH": "2025-12-14T09:26:35.318976", "MEAN_MOTION": 15.6612417, "ECCENTRICITY": 0.00048995, "INCLINATION": 51.6278, "RA_OF_ASC_NODE": 128.8403, "ARG_OF_PERICENTER": 257.8165, "MEAN_ANOMALY": 102.2282, "EPHEMERIS_TYPE": 0, "CLASSIFICATION_TYPE": "U", "NORAD_CAT_ID": 65731, "ELEMENT_SET_NO": 999, "REV_AT_EPOCH": 1340, "BSTAR": 0.0010467097, "MEAN_MOTION_DOT": 0.00110677, "MEAN_MOTION_DDOT": 0}, "tle": {"line1": "1 65731U 98067XK  25348.39346434  .00110677  00000+0  10467-2 0  9991", "line2": "2 65731  51.6278 128.8403 0004899 257.8165 102.2282 15.66124170 13401"}}, "geometry": {"type": "Point", "coordinates": [-19.998508778962588, -36.92992726324399]}}, {"type": "Feature", "properties": {"norad_id": 65732, "name": "RSP-03", "group": "stations", "lat": -37.806154850329065, "lon": -19.377964933485227, "alt_km": 361.78097948215054, "timestamp": "2025-12-15T10:55:19.884725+00:00", "meta": {"OBJECT_NAME": "RSP-03", "OBJECT_ID": "1998-067XL", "EPOCH": "2025-12-14T18:39:23.399424", "MEAN_MOTION": 15.69202876, "ECCENTRICITY": 0.00056754, "INCLINATION": 51.6257, "RA_OF_ASC_NODE": 126.1422, "ARG_OF_PERICENTER": 265.6852, "MEAN_ANOMALY": 94.3496, "EPHEMERIS_TYPE": 0, "CLASSIFICATION_TYPE": "U", "NORAD_CAT_ID": 65732, "ELEMENT_SET_NO": 999, "REV_AT_EPOCH": 1348, "BSTAR": 0.0009740183, "MEAN_MOTION_DOT": 0.00116871, "MEAN_MOTION_DDOT": 0}, "tle": {"line1": "1 65732U 98067XL  25348.77735416  .00116871  00000+0  97402-3 0  9993", "line2": "2 65732  51.6257 126.1422 0005675 265.6852  94.3496 15.69202876 13483"}}, "geometry": {"type": "Point", "coordinates": [-19.377964933485227, -37.806154850329065]}}, {"type": "Feature", "properties": {"norad_id": 65733, "name": "GHS-01", "group": "stations", "lat": -24.93770966190917, "lon": -37.16188903958931, "alt_km": 343.83296927538777, "timestamp": "2025-12-15T10:55:19.884737+00:00", "meta": {"OBJECT_NAME": "GHS-01", "OBJECT_ID": "1998-067XM", "EPOCH": "2025-12-13T15:24:20.714688", "MEAN_MOTION": 15.75321114, "ECCENTRICITY": 0.00073966, "INCLINATION": 51.6271, "RA_OF_ASC_NODE": 130.5592, "ARG_OF_PERICENTER": 286.1274, "MEAN_ANOMALY": 73.8911, "EPHEMERIS_TYPE": 0, "CLASSIFICATION_TYPE": "U", "NORAD_CAT_ID": 65733, "ELEMENT_SET_NO": 999, "REV_AT_EPOCH": 1332, "BSTAR": 0.0014639187, "MEAN_MOTION_DOT": 0.0023151, "MEAN_MOTION_DDOT": 0}, "tle": {"line1": "1 65733U 98067XM  25347.64190642  .00231510  00000+0  14639-2 0  9993", "line2": "2 65733  51.6271 130.5592 0007396 286.1274  73.8911 15.75321114 13326"}}, "geometry": {"type": "Point", "coordinates": [-37.16188903958931, -24.93770966190917]}}, {"type": "Feature", "properties": {"norad_id": 65941, "name": "YOTSUBA-KULOVER", "group": "stations", "lat": -47.969726635176826, "lon": 64.79412361703734, "alt_km": 391.5783856153439, "timestamp": "2025-12-15T10:55:19.884748+00:00", "meta": {"OBJECT_NAME": "YOTSUBA-KULOVER", "OBJECT_ID": "1998-067XN", "EPOCH": "2025-12-14T10:37:31.352736", "MEAN_MOTION": 15.59735422, "ECCENTRICITY": 0.00013863, "INCLINATION": 51.6284, "RA_OF_ASC_NODE": 131.4172, "ARG_OF_PERICENTER": 271.9783, "MEAN_ANOMALY": 88.1051, "EPHEMERIS_TYPE": 0, "CLASSIFICATION_TYPE": "U", "NORAD_CAT_ID": 65941, "ELEMENT_SET_NO": 999, "REV_AT_EPOCH": 1012, "BSTAR": 0.00091507112, "MEAN_MOTION_DOT": 0.00074853, "MEAN_MOTION_DDOT": 0}, "tle": {"line1": "1 65941U 98067XN  25348.44272399  .00074853  00000+0  91507-3 0  9998", "line2": "2 65941  51.6284 131.4172 0001386 271.9783  88.1051 15.59735422 10127"}}, "geometry": {"type": "Point", "coordinates": [64.79412361703734, -47.969726635176826]}}, {"type": "Feature", "properties": {"norad_id": 65942, "name": "BOTAN", "group": "stations", "lat": -46.65341707378713, "lon": 68.4780536365322, "alt_km": 380.33280925310646, "timestamp": "2025-12-15T10:55:19.884759+00:00", "meta": {"OBJECT_NAME": "BOTAN", "OBJECT_ID": "1998-067XP", "EPOCH": "2025-12-13T19:19:30.936288", "MEAN_MOTION": 15.63168137, "ECCENTRICITY": 0.00029855, "INCLINATION": 51.6273, "RA_OF_ASC_NODE": 133.9097, "ARG_OF_PERICENTER": 245.5023, "MEAN_ANOMALY": 114.566, "EPHEMERIS_TYPE": 0, "CLASSIFICATION_TYPE": "U", "NORAD_CAT_ID": 65942, "ELEMENT_SET_NO": 999, "REV_AT_EPOCH": 1003, "BSTAR": 0.0012359991, "MEAN_MOTION_DOT": 0.00116317, "MEAN_MOTION_DDOT": 0}, "tle": {"line1": "1 65942U 98067XP  25347.80521917  .00116317  00000+0  12360-2 0  9992", "line2": "2 65942  51.6273 133.9097 0002985 245.5023 114.5660 15.63168137 10037"}}, "geometry": {"type": "Point", "coordinates": [68.4780536365322, -46.65341707378713]}}, {"type": "Feature", "properties": {"norad_id": 65943, "name": "E-KAGAKU-1", "group": "stations", "lat": -48.15641051970697, "lon": 64.09667706350791, "alt_km": 392.2117701492489, "timestamp": "2025-12-15T10:55:19.884769+00:00", "meta": {"OBJECT_NAME": "E-KAGAKU-1", "OBJECT_ID": "1998-067XQ", "EPOCH": "2025-12-14T15:14:24.603072", "MEAN_MOTION": 15.59736251, "ECCENTRICITY": 0.00018352, "INCLINATION": 51.6284, "RA_OF_ASC_NODE": 130.4549, "ARG_OF_PERICENTER": 215.0597, "MEAN_ANOMALY": 145.0275, "EPHEMERIS_TYPE": 0, "CLASSIFICATION_TYPE": "U", "NORAD_CAT_ID": 65943, "ELEMENT_SET_NO": 999, "REV_AT_EPOCH": 1015, "BSTAR": 0.00073893681, "MEAN_MOTION_DOT": 0.00060238, "MEAN_MOTION_DDOT": 0}, "tle": {"line1": "1 65943U 98067XQ  25348.63500698  .00060238  00000+0  73894-3 0  9998", "line2": "2 65943  51.6284 130.4549 0001835 215.0597 145.0275 15.59736251 10152"}}, "geometry": {"type": "Point", "coordinates": [64.09667706350791, -48.15641051970697]}}]}